[{"OBJECT_NAME":"ION SCV-010","OBJECT_ID":"2023-054Q","EPOCH":"2026-03-09T16:02:35.904768","MEAN_MOTION":15.25210322,"ECCENTRICITY":0.00127052,"INCLINATION":97.3904,"RA_OF_ASC_NODE":319.4312,"ARG_OF_PERICENTER":188.785,"MEAN_ANOMALY":171.3168,"EPHEMERIS_TYPE":0,"CLASSIFICATION_TYPE":"U","NORAD_CAT_ID":56192,"ELEMENT_SET_NO":999,"REV_AT_EPOCH":16102,"BSTAR":0.00025045068,"MEAN_MOTION_DOT":6.231e-5,"MEAN_MOTION_DDOT":0},{"OBJECT_NAME":"STARLINK-33887","OBJECT_ID":"2025-085S","EPOCH":"2026-03-09T22:35:57.068736","MEAN_MOTION":15.27576156,"ECCENTRICITY":0.00013272,"INCLINATION":43.0031,"RA_OF_ASC_NODE":29.0446,"ARG_OF_PERICENTER":270.6338,"MEAN_ANOMALY":89.4362,"EPHEMERIS_TYPE":0,"CLASSIFICATION_TYPE":"U","NORAD_CAT_ID":63680,"ELEMENT_SET_NO":999,"REV_AT_EPOCH":4897,"BSTAR":0.00094671814,"MEAN_MOTION_DOT":0.00025878,"MEAN_MOTION_DDOT":0}]
